[{"OBJECT_NAME":"DOORY-SAT","OBJECT_ID":"2023-188A","EPOCH":"2026-03-09T23:27:23.333760","MEAN_MOTION":14.80342987,"ECCENTRICITY":0.00094423,"INCLINATION":46.9821,"RA_OF_ASC_NODE":60.4458,"ARG_OF_PERICENTER":285.1315,"MEAN_ANOMALY":74.8534,"EPHEMERIS_TYPE":0,"CLASSIFICATION_TYPE":"U","NORAD_CAT_ID":58500,"ELEMENT_SET_NO":999,"REV_AT_EPOCH":12229,"BSTAR":0.00032429984,"MEAN_MOTION_DOT":2.298e-5,"MEAN_MOTION_DDOT":0},{"OBJECT_NAME":"CZ-2C R\/B","OBJECT_ID":"2024-023M","EPOCH":"2026-03-09T13:36:23.920128","MEAN_MOTION":14.71275379,"ECCENTRICITY":0.0095009,"INCLINATION":49.8968,"RA_OF_ASC_NODE":195.5804,"ARG_OF_PERICENTER":252.3945,"MEAN_ANOMALY":106.6592,"EPHEMERIS_TYPE":0,"CLASSIFICATION_TYPE":"U","NORAD_CAT_ID":58916,"ELEMENT_SET_NO":999,"REV_AT_EPOCH":11263,"BSTAR":0.00019113,"MEAN_MOTION_DOT":1.052e-5,"MEAN_MOTION_DDOT":0}]
